[{"OBJECT_NAME":"YAOGAN-35 02B","OBJECT_ID":"2022-068B","EPOCH":"2026-03-09T22:54:15.556608","MEAN_MOTION":15.47770078,"ECCENTRICITY":0.00054717,"INCLINATION":34.9994,"RA_OF_ASC_NODE":351.8421,"ARG_OF_PERICENTER":267.7559,"MEAN_ANOMALY":92.2537,"EPHEMERIS_TYPE":0,"CLASSIFICATION_TYPE":"U","NORAD_CAT_ID":52908,"ELEMENT_SET_NO":999,"REV_AT_EPOCH":20725,"BSTAR":0.001158139,"MEAN_MOTION_DOT":0.00062371,"MEAN_MOTION_DDOT":0},{"OBJECT_NAME":"FLOCK 4Q-26","OBJECT_ID":"2023-174AE","EPOCH":"2026-03-09T17:31:54.974496","MEAN_MOTION":15.50866575,"ECCENTRICITY":0.00073348,"INCLINATION":97.3894,"RA_OF_ASC_NODE":158.0869,"ARG_OF_PERICENTER":149.9195,"MEAN_ANOMALY":210.2479,"EPHEMERIS_TYPE":0,"CLASSIFICATION_TYPE":"U","NORAD_CAT_ID":58284,"ELEMENT_SET_NO":999,"REV_AT_EPOCH":13038,"BSTAR":0.00056917098,"MEAN_MOTION_DOT":0.00032914,"MEAN_MOTION_DDOT":0}]
